DELTA 1 R/B             
1 20323U 89089B   25159.13830239  .00000269  00000+0  75907-4 0  9993
2 20323  97.1056  44.8276 0067721 269.8420  89.5017 14.50393597876462
ARIANE 40 R/B           
1 20443U 90005H   25158.88315606  .00000239  00000+0  89935-4 0  9996
2 20443  98.3462 222.1011 0009124 316.4299  43.6168 14.39635110853261
DELTA 2 R/B(1)          
1 20453U 90008B   25159.20355880  .00024870  00000+0  56351-3 0  9997
2 20453  35.6078 138.3114 0142163 281.3245  77.1540 15.32154402883749
COSMOS 2058             
1 20465U 90010A   25158.89733797  .00002713  00000+0  17052-3 0  9991
2 20465  82.4757 317.4328 0009885 196.5674 163.5234 15.08829031900772
SL-14 R/B               
1 20466U 90010B   25158.74347591  .00000388  00000+0  44355-4 0  9992
2 20466  82.5015 165.5442 0021264 123.5662 236.7588 14.83254462887728
SL-14 R/B               
1 20511U 90018B   25158.90270569  .00000382  00000+0  45415-4 0  9991
2 20511  82.5207 119.8857 0014834 277.2019  82.7509 14.81840788902979
HST                     
1 20580U 90037B   25158.55832899  .00004494  00000+0  16561-3 0  9996
2 20580  28.4671 110.1765 0002416 348.6174  11.4365 15.25222559731214
SL-16 R/B               
1 20625U 90046B   25159.12532868 -.00000280  00000+0 -11990-3 0  9995
2 20625  70.9972 154.5218 0014368 352.1607   7.9289 14.14964759809803
COSMOS 2084             
1 20663U 90055A   25159.16779849  .00001957  00000+0  15135-3 0  9998
2 20663  62.7887 190.3463 0062269 153.6176 206.8118 15.03650174895029
SL-6 R/B(2)             
1 20666U 90055D   25159.14625866  .00001526  00000+0  13007-3 0  9996
2 20666  62.7825 106.2072 0027908 189.3995 170.6585 15.02001923896402
SL-8 R/B                
1 20775U 90078B   25158.88270659  .00007874  00000+0  26303-3 0  9993
2 20775  82.9065 136.1985 0401944 210.3722 147.3652 14.78167398768569
SL-8 R/B                
1 21088U 91006B   25158.89936351  .00000124  00000+0  10894-3 0  9991
2 21088  82.9432  14.4665 0023887  85.1231 285.8976 13.77455751726244
OKEAN-3                 
1 21397U 91039A   25158.77806356  .00002878  00000+0  21299-3 0  9997
2 21397  82.5182 242.7177 0014803 180.7171 179.4036 15.02736039823729
COSMOS 2151             
1 21422U 91042A   25158.80433304  .00001568  00000+0  12773-3 0  9995
2 21422  82.4970 348.4840 0011043 268.7392  91.2566 14.98823502822003
SL-14 R/B               
1 21423U 91042B   25158.89932225  .00000397  00000+0  47470-4 0  9993
2 21423  82.4924 117.8265 0018595  66.2631 294.0531 14.81539069812387
ERS-1                   
1 21574U 91050A   25158.89463114  .00000258  00000+0  97700-4 0  9992
2 21574  98.7911 165.1837 0031019 298.4841  61.3223 14.39194356776188
ARIANE 40 R/B           
1 21610U 91050F   25159.11305271  .00000275  00000+0  95476-4 0  9995
2 21610  98.2396 216.0268 0003385 163.5404 196.5897 14.42632168779674
INTERCOSMOS 25          
1 21819U 91086A   25158.98290692  .00001888  00000+0  37173-3 0  9999
2 21819  82.6027 115.9987 1490549 348.7922   8.3057 12.11026473463435
SL-8 R/B                
1 21876U 92008B   25158.92023315  .00000102  00000+0  89506-4 0  9993
2 21876  82.9261 112.1252 0034554 179.7813 241.6926 13.75932363671630
SL-8 R/B                
1 21938U 92020B   25158.79557205  .00000135  00000+0  12469-3 0  9990
2 21938  82.9307 357.9208 0028776 347.9341  22.5802 13.75506590663341
USA 81                  
1 21949U 92023A   25158.89536262  .00000166  00000+0  54336-4 0  9990
2 21949  85.0065 289.9401 0001976 115.4170 244.7227 14.32242766 55450
COSMOS 2219             
1 22219U 92076A   25158.62598537 -.00000255  00000+0 -10881-3 0  9990
2 22219  71.0597 233.0483 0020483 261.4688  98.4114 14.14024152679498
SL-16 R/B               
1 22220U 92076B   25158.97871780 -.00000208  00000+0 -80069-4 0  9998
2 22220  71.0013  47.0240 0012019 163.6985 213.3513 14.16805635682924
COSMOS 2221             
1 22236U 92080A   25158.77034340  .00001584  00000+0  14280-3 0  9998
2 22236  82.5041 182.0576 0015698  41.3822 318.8585 14.94858193739701
SL-16 R/B               
1 22285U 92093B   25158.89786372 -.00000108  00000+0 -30830-4 0  9991
2 22285  71.0217 221.1013 0004741 336.3434  23.7471 14.15398720674271
COSMOS 2228             
1 22286U 92094A   25158.88872653  .00001716  00000+0  15135-3 0  9994
2 22286  82.5173 140.0847 0019625 142.6572 217.6018 14.95690839734960
SL-16 R/B               
1 22566U 93016B   25158.91109468 -.00000169  00000+0 -62529-4 0  9994
2 22566  71.0089  72.2766 0009756   8.3749 351.7534 14.15260219663291
COSMOS 2242             
1 22626U 93024A   25158.49404780  .00001593  00000+0  14243-3 0  9997
2 22626  82.5184 169.5812 0017742 146.0766 214.1594 14.95144291739253
SL-16 R/B               
1 22803U 93059B   25158.62791948 -.00000219  00000+0 -84747-4 0  9995
2 22803  70.9902 231.1503 0019495 269.4741  90.4149 14.17174768640564
ARIANE 40 R/B           
1 22830U 93061H   25158.89513777  .00000183  00000+0  83359-4 0  9995
2 22830  98.5270 227.6127 0011037  23.9413 336.2282 14.32660672654759
COSMOS 2278             
1 23087U 94023A   25158.89851203  .00000300  00000+0  18161-3 0  9997
2 23087  71.0539  29.9772 0007037  89.5501 270.6428 14.14295877605950
