OBJECT_NAME,OBJECT_ID,EPOCH,MEAN_MOTION,ECCENTRICITY,INCLINATION,RA_OF_ASC_NODE,ARG_OF_PERICENTER,MEAN_ANOMALY,EPHEMERIS_TYPE,CLASSIFICATION_TYPE,NORAD_CAT_ID,ELEMENT_SET_NO,REV_AT_EPOCH,BSTAR,MEAN_MOTION_DOT,MEAN_MOTION_DDOT
DELTA 1 R/B,1989-089B,2025-06-08T03:19:09.326496,14.50393597,.0067721,97.1056,44.8276,269.8420,89.5017,0,U,20323,999,87646,.75907E-4,.269E-5,0
ARIANE 40 R/B,1990-005H,2025-06-07T21:11:44.683584,14.39635110,.0009124,98.3462,222.1011,316.4299,43.6168,0,U,20443,999,85326,.89935E-4,.239E-5,0
DELTA 2 R/B(1),1990-008B,2025-06-08T04:53:07.480320,15.32154402,.0142163,35.6078,138.3114,281.3245,77.1540,0,U,20453,999,88374,.56351E-3,.2487E-3,0
COSMOS 2058,1990-010A,2025-06-07T21:32:10.000608,15.08829031,.0009885,82.4757,317.4328,196.5674,163.5234,0,U,20465,999,90077,.17052E-3,.2713E-4,0
SL-14 R/B,1990-010B,2025-06-07T17:50:36.318624,14.83254462,.0021264,82.5015,165.5442,123.5662,236.7588,0,U,20466,999,88772,.44355E-4,.388E-5,0
SL-14 R/B,1990-018B,2025-06-07T21:39:53.771616,14.81840788,.0014834,82.5207,119.8857,277.2019,82.7509,0,U,20511,999,90297,.45415E-4,.382E-5,0
HST,1990-037B,2025-06-07T13:23:59.624736,15.25222559,.0002416,28.4671,110.1765,348.6174,11.4365,0,U,20580,999,73121,.16561E-3,.4494E-4,0
SL-16 R/B,1990-046B,2025-06-08T03:00:28.397952,14.14964759,.0014368,70.9972,154.5218,352.1607,7.9289,0,U,20625,999,80980,-.1199E-3,-.28E-5,0
COSMOS 2084,1990-055A,2025-06-08T04:01:37.789536,15.03650174,.0062269,62.7887,190.3463,153.6176,206.8118,0,U,20663,999,89502,.15135E-3,.1957E-4,0
SL-6 R/B(2),1990-055D,2025-06-08T03:30:36.748224,15.02001923,.0027908,62.7825,106.2072,189.3995,170.6585,0,U,20666,999,89640,.13007E-3,.1526E-4,0
SL-8 R/B,1990-078B,2025-06-07T21:11:05.849376,14.78167398,.0401944,82.9065,136.1985,210.3722,147.3652,0,U,20775,999,76856,.26303E-3,.7874E-4,0
SL-8 R/B,1991-006B,2025-06-07T21:35:05.007264,13.77455751,.0023887,82.9432,14.4665,85.1231,285.8976,0,U,21088,999,72624,.10894E-3,.124E-5,0
OKEAN-3,1991-039A,2025-06-07T18:40:24.691584,15.02736039,.0014803,82.5182,242.7177,180.7171,179.4036,0,U,21397,999,82372,.21299E-3,.2878E-4,0
COSMOS 2151,1991-042A,2025-06-07T19:18:14.374656,14.98823502,.0011043,82.4970,348.4840,268.7392,91.2566,0,U,21422,999,82200,.12773E-3,.1568E-4,0
SL-14 R/B,1991-042B,2025-06-07T21:35:01.442400,14.81539069,.0018595,82.4924,117.8265,66.2631,294.0531,0,U,21423,999,81238,.4747E-4,.397E-5,0
ERS-1,1991-050A,2025-06-07T21:28:16.130496,14.39194356,.0031019,98.7911,165.1837,298.4841,61.3223,0,U,21574,999,77618,.977E-4,.258E-5,0
ARIANE 40 R/B,1991-050F,2025-06-08T02:42:47.754144,14.42632168,.0003385,98.2396,216.0268,163.5404,196.5897,0,U,21610,999,77967,.95476E-4,.275E-5,0
INTERCOSMOS 25,1991-086A,2025-06-07T23:35:23.157888,12.11026473,.1490549,82.6027,115.9987,348.7922,8.3057,0,U,21819,999,46343,.37173E-3,.1888E-4,0
SL-8 R/B,1992-008B,2025-06-07T22:05:08.144160,13.75932363,.0034554,82.9261,112.1252,179.7813,241.6926,0,U,21876,999,67163,.89506E-4,.102E-5,0
SL-8 R/B,1992-020B,2025-06-07T19:05:37.425120,13.75506590,.0028776,82.9307,357.9208,347.9341,22.5802,0,U,21938,999,66334,.12469E-3,.135E-5,0
USA 81,1992-023A,2025-06-07T21:29:19.330368,14.32242766,.0001976,85.0065,289.9401,115.4170,244.7227,0,U,21949,999,5545,.54336E-4,.166E-5,0
COSMOS 2219,1992-076A,2025-06-07T15:01:25.135968,14.14024152,.0020483,71.0597,233.0483,261.4688,98.4114,0,U,22219,999,67949,-.10881E-3,-.255E-5,0
SL-16 R/B,1992-076B,2025-06-07T23:29:21.217920,14.16805635,.0012019,71.0013,47.0240,163.6985,213.3513,0,U,22220,999,68292,-.80069E-4,-.208E-5,0
COSMOS 2221,1992-080A,2025-06-07T18:29:17.669760,14.94858193,.0015698,82.5041,182.0576,41.3822,318.8585,0,U,22236,999,73970,.1428E-3,.1584E-4,0
SL-16 R/B,1992-093B,2025-06-07T21:32:55.425408,14.15398720,.0004741,71.0217,221.1013,336.3434,23.7471,0,U,22285,999,67427,-.3083E-4,-.108E-5,0
COSMOS 2228,1992-094A,2025-06-07T21:19:45.972192,14.95690839,.0019625,82.5173,140.0847,142.6572,217.6018,0,U,22286,999,73496,.15135E-3,.1716E-4,0
SL-16 R/B,1993-016B,2025-06-07T21:51:58.580352,14.15260219,.0009756,71.0089,72.2766,8.3749,351.7534,0,U,22566,999,66329,-.62529E-4,-.169E-5,0
COSMOS 2242,1993-024A,2025-06-07T11:51:25.729920,14.95144291,.0017742,82.5184,169.5812,146.0766,214.1594,0,U,22626,999,73925,.14243E-3,.1593E-4,0
SL-16 R/B,1993-059B,2025-06-07T15:04:12.243072,14.17174768,.0019495,70.9902,231.1503,269.4741,90.4149,0,U,22803,999,64056,-.84747E-4,-.219E-5,0
ARIANE 40 R/B,1993-061H,2025-06-07T21:28:59.903328,14.32660672,.0011037,98.5270,227.6127,23.9413,336.2282,0,U,22830,999,65475,.83359E-4,.183E-5,0
COSMOS 2278,1994-023A,2025-06-07T21:33:51.439392,14.14295877,.0007037,71.0539,29.9772,89.5501,270.6428,0,U,23087,999,60595,.18161E-3,.3E-5,0
